{
  "type": "FeatureCollection",
  "city": "Jaipur",
  "state": "Rajasthan",
  "generated": "2026-08-06",
  "features": [
    {
      "type": "Feature",
      "id": "jpr-c-001",
      "properties": { "name": "C-Scheme", "zone": "Central Jaipur", "pincode": "302001" },
      "geometry": { "type": "Polygon", "coordinates": [[[75.785,26.900],[75.798,26.898],[75.810,26.900],[75.812,26.908],[75.808,26.915],[75.798,26.918],[75.788,26.915],[75.785,26.908],[75.785,26.900]]] }
    },
    {
      "type": "Feature",
      "id": "jpr-c-002",
      "properties": { "name": "Civil Lines", "zone": "Central Jaipur", "pincode": "302006" },
      "geometry": { "type": "Polygon", "coordinates": [[[75.782,26.908],[75.795,26.905],[75.808,26.908],[75.810,26.915],[75.805,26.920],[75.795,26.922],[75.785,26.918],[75.782,26.912],[75.782,26.908]]] }
    },
    {
      "type": "Feature",
      "id": "jpr-c-003",
      "properties": { "name": "Bani Park", "zone": "Central Jaipur", "pincode": "302016" },
      "geometry": { "type": "Polygon", "coordinates": [[[75.775,26.928],[75.788,26.925],[75.798,26.928],[75.800,26.935],[75.798,26.942],[75.788,26.945],[75.778,26.942],[75.775,26.935],[75.775,26.928]]] }
    },
    {
      "type": "Feature",
      "id": "jpr-c-004",
      "properties": { "name": "Pink City", "zone": "Central Jaipur", "pincode": "302002" },
      "geometry": { "type": "Polygon", "coordinates": [[[75.812,26.915],[75.825,26.912],[75.838,26.914],[75.842,26.922],[75.840,26.932],[75.830,26.935],[75.818,26.932],[75.812,26.925],[75.812,26.915]]] }
    },
    {
      "type": "Feature",
      "id": "jpr-c-005",
      "properties": { "name": "M I Road", "zone": "Central Jaipur", "pincode": "302001" },
      "geometry": { "type": "Polygon", "coordinates": [[[75.788,26.910],[75.800,26.908],[75.812,26.910],[75.815,26.915],[75.812,26.922],[75.800,26.925],[75.790,26.922],[75.788,26.915],[75.788,26.910]]] }
    },
    {
      "type": "Feature",
      "id": "jpr-c-006",
      "properties": { "name": "Sindhi Camp", "zone": "Central Jaipur", "pincode": "302001" },
      "geometry": { "type": "Polygon", "coordinates": [[[75.780,26.920],[75.790,26.918],[75.798,26.920],[75.800,26.925],[75.798,26.930],[75.790,26.932],[75.782,26.928],[75.780,26.924],[75.780,26.920]]] }
    },
    {
      "type": "Feature",
      "id": "jpr-c-007",
      "properties": { "name": "Lal Kothi", "zone": "Central Jaipur", "pincode": "302015" },
      "geometry": { "type": "Polygon", "coordinates": [[[75.782,26.888],[75.790,26.885],[75.798,26.888],[75.800,26.892],[75.798,26.898],[75.790,26.900],[75.784,26.898],[75.782,26.892],[75.782,26.888]]] }
    },
    {
      "type": "Feature",
      "id": "jpr-c-008",
      "properties": { "name": "Bais Godam", "zone": "Central Jaipur", "pincode": "302006" },
      "geometry": { "type": "Polygon", "coordinates": [[[75.778,26.892],[75.785,26.890],[75.792,26.892],[75.790,26.895],[75.788,26.898],[75.780,26.900],[75.778,26.895],[75.778,26.892]]] }
    },
    {
      "type": "Feature",
      "id": "jpr-c-009",
      "properties": { "name": "Sethi Colony", "zone": "Central Jaipur", "pincode": "302004" },
      "geometry": { "type": "Polygon", "coordinates": [[[75.802,26.895],[75.810,26.893],[75.816,26.895],[75.814,26.900],[75.810,26.903],[75.804,26.901],[75.802,26.898],[75.802,26.895]]] }
    },
    {
      "type": "Feature",
      "id": "jpr-c-010",
      "properties": { "name": "Ashok Nagar", "zone": "Central Jaipur", "pincode": "302001" },
      "geometry": { "type": "Polygon", "coordinates": [[[75.790,26.895],[75.798,26.893],[75.805,26.895],[75.803,26.900],[75.798,26.903],[75.792,26.901],[75.790,26.898],[75.790,26.895]]] }
    },
    {
      "type": "Feature",
      "id": "jpr-c-011",
      "properties": { "name": "Adarsh Nagar", "zone": "Central Jaipur", "pincode": "302004" },
      "geometry": { "type": "Polygon", "coordinates": [[[75.775,26.908],[75.788,26.905],[75.798,26.908],[75.800,26.912],[75.798,26.918],[75.788,26.920],[75.778,26.918],[75.775,26.912],[75.775,26.908]]] }
    },
    {
      "type": "Feature",
      "id": "jpr-c-012",
      "properties": { "name": "Bapu Nagar", "zone": "Central Jaipur", "pincode": "302015" },
      "geometry": { "type": "Polygon", "coordinates": [[[75.795,26.875],[75.805,26.873],[75.812,26.875],[75.810,26.880],[75.805,26.883],[75.798,26.881],[75.795,26.878],[75.795,26.875]]] }
    },
    {
      "type": "Feature",
      "id": "jpr-c-013",
      "properties": { "name": "Tilak Nagar", "zone": "Central Jaipur", "pincode": "302004" },
      "geometry": { "type": "Polygon", "coordinates": [[[75.795,26.892],[75.805,26.890],[75.815,26.892],[75.812,26.898],[75.808,26.905],[75.798,26.903],[75.795,26.898],[75.795,26.892]]] }
    },
    {
      "type": "Feature",
      "id": "jpr-c-014",
      "properties": { "name": "Raja Park", "zone": "Central Jaipur", "pincode": "302004" },
      "geometry": { "type": "Polygon", "coordinates": [[[75.805,26.895],[75.818,26.892],[75.830,26.895],[75.832,26.902],[75.828,26.908],[75.818,26.910],[75.808,26.908],[75.805,26.900],[75.805,26.895]]] }
    },
    {
      "type": "Feature",
      "id": "jpr-c-015",
      "properties": { "name": "Jawahar Nagar", "zone": "Central Jaipur", "pincode": "302004" },
      "geometry": { "type": "Polygon", "coordinates": [[[75.795,26.878],[75.808,26.875],[75.820,26.878],[75.822,26.885],[75.818,26.892],[75.808,26.895],[75.798,26.892],[75.795,26.885],[75.795,26.878]]] }
    },
    {
      "type": "Feature",
      "id": "jpr-c-016",
      "properties": { "name": "Ramganj", "zone": "Central Jaipur", "pincode": "302002" },
      "geometry": { "type": "Polygon", "coordinates": [[[75.825,26.908],[75.838,26.905],[75.850,26.908],[75.852,26.915],[75.848,26.922],[75.835,26.925],[75.828,26.920],[75.825,26.912],[75.825,26.908]]] }
    },
    {
      "type": "Feature",
      "id": "jpr-c-017",
      "properties": { "name": "Brahmpuri", "zone": "Central Jaipur", "pincode": "302002" },
      "geometry": { "type": "Polygon", "coordinates": [[[75.835,26.910],[75.845,26.908],[75.852,26.910],[75.850,26.916],[75.845,26.919],[75.838,26.917],[75.835,26.914],[75.835,26.910]]] }
    },
    {
      "type": "Feature",
      "id": "jpr-c-018",
      "properties": { "name": "Transport Nagar", "zone": "Central Jaipur", "pincode": "302003" },
      "geometry": { "type": "Polygon", "coordinates": [[[75.805,26.860],[75.815,26.858],[75.822,26.860],[75.820,26.866],[75.815,26.869],[75.808,26.867],[75.805,26.864],[75.805,26.860]]] }
    },
    {
      "type": "Feature",
      "id": "jpr-c-019",
      "properties": { "name": "Jalupura", "zone": "Central Jaipur", "pincode": "302004" },
      "geometry": { "type": "Polygon", "coordinates": [[[75.798,26.905],[75.808,26.903],[75.814,26.905],[75.812,26.910],[75.808,26.913],[75.800,26.911],[75.798,26.908],[75.798,26.905]]] }
    },
    {
      "type": "Feature",
      "id": "jpr-c-020",
      "properties": { "name": "Gopalbari", "zone": "Central Jaipur", "pincode": "302001" },
      "geometry": { "type": "Polygon", "coordinates": [[[75.785,26.920],[75.795,26.918],[75.802,26.920],[75.800,26.926],[75.795,26.929],[75.788,26.927],[75.785,26.924],[75.785,26.920]]] }
    },
    {
      "type": "Feature",
      "id": "jpr-c-021",
      "properties": { "name": "Moti Dongri Road", "zone": "Central Jaipur", "pincode": "302001" },
      "geometry": { "type": "Polygon", "coordinates": [[[75.808,26.890],[75.818,26.888],[75.825,26.890],[75.823,26.896],[75.818,26.899],[75.810,26.897],[75.808,26.894],[75.808,26.890]]] }
    },
    {
      "type": "Feature",
      "id": "jpr-c-022",
      "properties": { "name": "Laxmi Narayan Puri", "zone": "Central Jaipur", "pincode": "302001" },
      "geometry": { "type": "Polygon", "coordinates": [[[75.800,26.882],[75.810,26.880],[75.816,26.882],[75.814,26.888],[75.810,26.891],[75.803,26.889],[75.800,26.886],[75.800,26.882]]] }
    },
    {
      "type": "Feature",
      "id": "jpr-c-023",
      "properties": { "name": "Purani Basti", "zone": "Central Jaipur", "pincode": "302001" },
      "geometry": { "type": "Polygon", "coordinates": [[[75.815,26.915],[75.822,26.913],[75.828,26.915],[75.826,26.920],[75.822,26.923],[75.818,26.921],[75.815,26.918],[75.815,26.915]]] }
    },
    {
      "type": "Feature",
      "id": "jpr-c-024",
      "properties": { "name": "Anita Colony", "zone": "Central Jaipur", "pincode": "302004" },
      "geometry": { "type": "Polygon", "coordinates": [[[75.808,26.878],[75.815,26.876],[75.820,26.878],[75.818,26.883],[75.815,26.886],[75.810,26.884],[75.808,26.881],[75.808,26.878]]] }
    },
    {
      "type": "Feature",
      "id": "jpr-c-025",
      "properties": { "name": "Sagram Colony", "zone": "Central Jaipur", "pincode": "302015" },
      "geometry": { "type": "Polygon", "coordinates": [[[75.788,26.870],[75.795,26.868],[75.800,26.870],[75.798,26.875],[75.795,26.878],[75.790,26.876],[75.788,26.873],[75.788,26.870]]] }
    },
    {
      "type": "Feature",
      "id": "jpr-c-026",
      "properties": { "name": "Raj Bhavan Road", "zone": "Central Jaipur", "pincode": "302005" },
      "geometry": { "type": "Polygon", "coordinates": [[[75.802,26.908],[75.810,26.906],[75.815,26.908],[75.813,26.913],[75.810,26.916],[75.805,26.914],[75.802,26.911],[75.802,26.908]]] }
    },
    {
      "type": "Feature",
      "id": "jpr-c-027",
      "properties": { "name": "Sachivalaya Nagar", "zone": "Central Jaipur", "pincode": "302005" },
      "geometry": { "type": "Polygon", "coordinates": [[[75.795,26.910],[75.802,26.908],[75.808,26.910],[75.806,26.915],[75.802,26.918],[75.797,26.916],[75.795,26.913],[75.795,26.910]]] }
    },
    {
      "type": "Feature",
      "id": "jpr-c-028",
      "properties": { "name": "Bhawani Singh Road", "zone": "Central Jaipur", "pincode": "302001" },
      "geometry": { "type": "Polygon", "coordinates": [[[75.800,26.898],[75.808,26.896],[75.814,26.898],[75.812,26.903],[75.808,26.906],[75.802,26.904],[75.800,26.901],[75.800,26.898]]] }
    },
    {
      "type": "Feature",
      "id": "jpr-e-001",
      "properties": { "name": "Malviya Nagar", "zone": "East Jaipur", "pincode": "302017" },
      "geometry": { "type": "Polygon", "coordinates": [[[75.790,26.852],[75.808,26.848],[75.822,26.850],[75.825,26.860],[75.822,26.870],[75.808,26.875],[75.792,26.870],[75.790,26.860],[75.790,26.852]]] }
    },
    {
      "type": "Feature",
      "id": "jpr-e-002",
      "properties": { "name": "Jagatpura", "zone": "East Jaipur", "pincode": "302017" },
      "geometry": { "type": "Polygon", "coordinates": [[[75.815,26.820],[75.838,26.815],[75.865,26.818],[75.870,26.835],[75.865,26.850],[75.840,26.855],[75.818,26.850],[75.815,26.838],[75.815,26.820]]] }
    },
    {
      "type": "Feature",
      "id": "jpr-e-003",
      "properties": { "name": "Pratap Nagar", "zone": "East Jaipur", "pincode": "302033" },
      "geometry": { "type": "Polygon", "coordinates": [[[75.775,26.818],[75.795,26.815],[75.812,26.818],[75.815,26.828],[75.810,26.840],[75.795,26.845],[75.778,26.840],[75.775,26.828],[75.775,26.818]]] }
    },
    {
      "type": "Feature",
      "id": "jpr-e-004",
      "properties": { "name": "Tonk Road", "zone": "East Jaipur", "pincode": "302015" },
      "geometry": { "type": "Polygon", "coordinates": [[[75.780,26.858],[75.790,26.855],[75.800,26.858],[75.802,26.875],[75.800,26.895],[75.792,26.905],[75.782,26.898],[75.780,26.878],[75.780,26.858]]] }
    },
    {
      "type": "Feature",
      "id": "jpr-e-005",
      "properties": { "name": "Agra Road", "zone": "East Jaipur", "pincode": "302003" },
      "geometry": { "type": "Polygon", "coordinates": [[[75.850,26.900],[75.870,26.895],[75.885,26.898],[75.882,26.910],[75.875,26.918],[75.855,26.915],[75.850,26.908],[75.850,26.900]]] }
    },
    {
      "type": "Feature",
      "id": "jpr-e-006",
      "properties": { "name": "Kanota", "zone": "East Jaipur", "pincode": "302012" },
      "geometry": { "type": "Polygon", "coordinates": [[[75.880,26.870],[75.898,26.865],[75.910,26.868],[75.908,26.880],[75.900,26.888],[75.885,26.885],[75.880,26.878],[75.880,26.870]]] }
    },
    {
      "type": "Feature",
      "id": "jpr-e-007",
      "properties": { "name": "JLN Marg", "zone": "East Jaipur", "pincode": "302017" },
      "geometry": { "type": "Polygon", "coordinates": [[[75.810,26.845],[75.825,26.842],[75.838,26.845],[75.835,26.855],[75.828,26.860],[75.815,26.858],[75.810,26.852],[75.810,26.845]]] }
    },
    {
      "type": "Feature",
      "id": "jpr-e-008",
      "properties": { "name": "Durgapura", "zone": "East Jaipur", "pincode": "302018" },
      "geometry": { "type": "Polygon", "coordinates": [[[75.760,26.848],[75.772,26.845],[75.782,26.848],[75.785,26.855],[75.782,26.862],[75.772,26.865],[75.762,26.862],[75.760,26.855],[75.760,26.848]]] }
    },
    {
      "type": "Feature",
      "id": "jpr-e-009",
      "properties": { "name": "Sitapura", "zone": "East Jaipur", "pincode": "302022" },
      "geometry": { "type": "Polygon", "coordinates": [[[75.815,26.785],[75.840,26.780],[75.868,26.782],[75.872,26.798],[75.868,26.812],[75.842,26.818],[75.818,26.812],[75.815,26.800],[75.815,26.785]]] }
    },
    {
      "type": "Feature",
      "id": "jpr-e-010",
      "properties": { "name": "Mahal Road", "zone": "East Jaipur", "pincode": "302015" },
      "geometry": { "type": "Polygon", "coordinates": [[[75.800,26.840],[75.812,26.838],[75.820,26.840],[75.818,26.848],[75.812,26.851],[75.803,26.849],[75.800,26.845],[75.800,26.840]]] }
    },
    {
      "type": "Feature",
      "id": "jpr-e-011",
      "properties": { "name": "Paldi Meena", "zone": "East Jaipur", "pincode": "302012" },
      "geometry": { "type": "Polygon", "coordinates": [[[75.860,26.905],[75.875,26.902],[75.885,26.905],[75.882,26.915],[75.875,26.920],[75.863,26.918],[75.860,26.912],[75.860,26.905]]] }
    },
    {
      "type": "Feature",
      "id": "jpr-e-012",
      "properties": { "name": "Jamdoli", "zone": "East Jaipur", "pincode": "302031" },
      "geometry": { "type": "Polygon", "coordinates": [[[75.830,26.910],[75.850,26.905],[75.865,26.908],[75.862,26.920],[75.855,26.928],[75.835,26.925],[75.830,26.918],[75.830,26.910]]] }
    },
    {
      "type": "Feature",
      "id": "jpr-e-013",
      "properties": { "name": "Bassi", "zone": "East Jaipur", "pincode": "303301" },
      "geometry": { "type": "Polygon", "coordinates": [[[75.930,26.820],[75.958,26.815],[75.988,26.818],[75.990,26.840],[75.985,26.860],[75.958,26.865],[75.935,26.860],[75.930,26.842],[75.930,26.820]]] }
    },
    {
      "type": "Feature",
      "id": "jpr-e-014",
      "properties": { "name": "Jamwa Ramgarh", "zone": "East Jaipur", "pincode": "302027" },
      "geometry": { "type": "Polygon", "coordinates": [[[75.870,26.940],[75.898,26.935],[75.928,26.938],[75.930,26.958],[75.925,26.980],[75.898,26.985],[75.875,26.980],[75.870,26.962],[75.870,26.940]]] }
    },
    {
      "type": "Feature",
      "id": "jpr-e-015",
      "properties": { "name": "Goner Road", "zone": "East Jaipur", "pincode": "302031" },
      "geometry": { "type": "Polygon", "coordinates": [[[75.845,26.860],[75.865,26.855],[75.880,26.858],[75.878,26.870],[75.870,26.878],[75.850,26.875],[75.845,26.868],[75.845,26.860]]] }
    },
    {
      "type": "Feature",
      "id": "jpr-e-016",
      "properties": { "name": "Vatika", "zone": "East Jaipur", "pincode": "303905" },
      "geometry": { "type": "Polygon", "coordinates": [[[75.880,26.770],[75.910,26.765],[75.935,26.768],[75.932,26.785],[75.920,26.795],[75.890,26.792],[75.880,26.782],[75.880,26.770]]] }
    },
    {
      "type": "Feature",
      "id": "jpr-e-017",
      "properties": { "name": "Shivdaspura", "zone": "East Jaipur", "pincode": "303903" },
      "geometry": { "type": "Polygon", "coordinates": [[[75.850,26.750],[75.878,26.745],[75.900,26.748],[75.898,26.762],[75.888,26.770],[75.860,26.768],[75.850,26.758],[75.850,26.750]]] }
    },
    {
      "type": "Feature",
      "id": "jpr-e-018",
      "properties": { "name": "Chaksu", "zone": "East Jaipur", "pincode": "303901" },
      "geometry": { "type": "Polygon", "coordinates": [[[75.920,26.580],[75.948,26.575],[75.978,26.578],[75.980,26.600],[75.975,26.620],[75.948,26.625],[75.925,26.620],[75.920,26.602],[75.920,26.580]]] }
    },
    {
      "type": "Feature",
      "id": "jpr-n-001",
      "properties": { "name": "Vidhyadhar Nagar", "zone": "North Jaipur", "pincode": "302039" },
      "geometry": { "type": "Polygon", "coordinates": [[[75.755,26.948],[75.770,26.945],[75.788,26.948],[75.792,26.955],[75.788,26.965],[75.778,26.972],[75.762,26.968],[75.755,26.958],[75.755,26.948]]] }
    },
    {
      "type": "Feature",
      "id": "jpr-n-002",
      "properties": { "name": "Jhotwara", "zone": "North Jaipur", "pincode": "302012" },
      "geometry": { "type": "Polygon", "coordinates": [[[75.718,26.938],[75.730,26.935],[75.748,26.936],[75.758,26.942],[75.755,26.955],[75.748,26.962],[75.735,26.960],[75.722,26.955],[75.718,26.945],[75.718,26.938]]] }
    },
    {
      "type": "Feature",
      "id": "jpr-n-003",
      "properties": { "name": "Kalwar Road", "zone": "North Jaipur", "pincode": "302012" },
      "geometry": { "type": "Polygon", "coordinates": [[[75.722,26.942],[75.732,26.940],[75.745,26.942],[75.748,26.952],[75.746,26.965],[75.742,26.972],[75.730,26.970],[75.722,26.962],[75.722,26.942]]] }
    },
    {
      "type": "Feature",
      "id": "jpr-n-004",
      "properties": { "name": "Sikar Road", "zone": "North Jaipur", "pincode": "302012" },
      "geometry": { "type": "Polygon", "coordinates": [[[75.728,26.978],[75.740,26.975],[75.752,26.978],[75.750,26.990],[75.745,26.998],[75.732,26.995],[75.728,26.988],[75.728,26.978]]] }
    },
    {
      "type": "Feature",
      "id": "jpr-n-005",
      "properties": { "name": "Niwaru", "zone": "North Jaipur", "pincode": "302012" },
      "geometry": { "type": "Polygon", "coordinates": [[[75.715,26.948],[75.725,26.945],[75.738,26.946],[75.742,26.952],[75.740,26.960],[75.735,26.965],[75.722,26.963],[75.715,26.958],[75.715,26.948]]] }
    },
    {
      "type": "Feature",
      "id": "jpr-n-006",
      "properties": { "name": "Shastri Nagar", "zone": "North Jaipur", "pincode": "302016" },
      "geometry": { "type": "Polygon", "coordinates": [[[75.770,26.932],[75.782,26.930],[75.792,26.932],[75.795,26.940],[75.792,26.948],[75.780,26.950],[75.772,26.945],[75.770,26.938],[75.770,26.932]]] }
    },
    {
      "type": "Feature",
      "id": "jpr-n-007",
      "properties": { "name": "Ambabari", "zone": "North Jaipur", "pincode": "302023" },
      "geometry": { "type": "Polygon", "coordinates": [[[75.758,26.935],[75.770,26.932],[75.782,26.935],[75.780,26.945],[75.775,26.950],[75.762,26.948],[75.758,26.942],[75.758,26.935]]] }
    },
    {
      "type": "Feature",
      "id": "jpr-n-008",
      "properties": { "name": "Benad Road", "zone": "North Jaipur", "pincode": "302012" },
      "geometry": { "type": "Polygon", "coordinates": [[[75.740,26.950],[75.755,26.948],[75.768,26.950],[75.765,26.960],[75.758,26.965],[75.745,26.962],[75.740,26.958],[75.740,26.950]]] }
    },
    {
      "type": "Feature",
      "id": "jpr-n-009",
      "properties": { "name": "Muralipura", "zone": "North Jaipur", "pincode": "302039" },
      "geometry": { "type": "Polygon", "coordinates": [[[75.748,26.960],[75.758,26.958],[75.770,26.960],[75.772,26.968],[75.770,26.975],[75.762,26.978],[75.752,26.976],[75.748,26.970],[75.748,26.960]]] }
    },
    {
      "type": "Feature",
      "id": "jpr-n-010",
      "properties": { "name": "Vishwakarma Industrial Area", "zone": "North Jaipur", "pincode": "302013" },
      "geometry": { "type": "Polygon", "coordinates": [[[75.750,26.965],[75.765,26.962],[75.778,26.965],[75.775,26.975],[75.768,26.980],[75.755,26.978],[75.750,26.972],[75.750,26.965]]] }
    },
    {
      "type": "Feature",
      "id": "jpr-n-011",
      "properties": { "name": "Amer", "zone": "North Jaipur", "pincode": "302028" },
      "geometry": { "type": "Polygon", "coordinates": [[[75.840,26.982],[75.855,26.980],[75.872,26.982],[75.875,26.992],[75.870,27.005],[75.855,27.010],[75.842,27.005],[75.840,26.995],[75.840,26.982]]] }
    },
    {
      "type": "Feature",
      "id": "jpr-n-012",
      "properties": { "name": "Chomu", "zone": "North Jaipur", "pincode": "303702" },
      "geometry": { "type": "Polygon", "coordinates": [[[75.690,27.145],[75.718,27.140],[75.748,27.142],[75.750,27.165],[75.745,27.195],[75.720,27.200],[75.695,27.195],[75.690,27.170],[75.690,27.145]]] }
    },
    {
      "type": "Feature",
      "id": "jpr-n-013",
      "properties": { "name": "Govindpura", "zone": "North Jaipur", "pincode": "302012" },
      "geometry": { "type": "Polygon", "coordinates": [[[75.730,26.930],[75.742,26.928],[75.752,26.930],[75.750,26.938],[75.745,26.942],[75.735,26.940],[75.730,26.936],[75.730,26.930]]] }
    },
    {
      "type": "Feature",
      "id": "jpr-s-001",
      "properties": { "name": "Mansarovar", "zone": "South Jaipur", "pincode": "302020" },
      "geometry": { "type": "Polygon", "coordinates": [[[75.752,26.852],[75.768,26.848],[75.785,26.850],[75.788,26.862],[75.785,26.875],[75.772,26.882],[75.755,26.878],[75.752,26.865],[75.752,26.852]]] }
    },
    {
      "type": "Feature",
      "id": "jpr-s-002",
      "properties": { "name": "New Sanganer Road", "zone": "South Jaipur", "pincode": "302019" },
      "geometry": { "type": "Polygon", "coordinates": [[[75.755,26.862],[75.765,26.860],[75.775,26.862],[75.778,26.870],[75.775,26.878],[75.765,26.882],[75.758,26.878],[75.755,26.870],[75.755,26.862]]] }
    },
    {
      "type": "Feature",
      "id": "jpr-s-003",
      "properties": { "name": "Sanganer", "zone": "South Jaipur", "pincode": "302029" },
      "geometry": { "type": "Polygon", "coordinates": [[[75.765,26.808],[75.782,26.805],[75.798,26.808],[75.800,26.818],[75.795,26.830],[75.780,26.835],[75.768,26.828],[75.765,26.818],[75.765,26.808]]] }
    },
    {
      "type": "Feature",
      "id": "jpr-s-004",
      "properties": { "name": "Shiprapath", "zone": "South Jaipur", "pincode": "302020" },
      "geometry": { "type": "Polygon", "coordinates": [[[75.770,26.860],[75.780,26.858],[75.790,26.860],[75.792,26.865],[75.788,26.872],[75.778,26.875],[75.772,26.872],[75.770,26.865],[75.770,26.860]]] }
    },
    {
      "type": "Feature",
      "id": "jpr-s-005",
      "properties": { "name": "Triveni Nagar", "zone": "South Jaipur", "pincode": "302020" },
      "geometry": { "type": "Polygon", "coordinates": [[[75.762,26.855],[75.772,26.853],[75.780,26.855],[75.778,26.862],[75.772,26.865],[75.765,26.863],[75.762,26.860],[75.762,26.855]]] }
    },
    {
      "type": "Feature",
      "id": "jpr-s-006",
      "properties": { "name": "Patrakar Colony", "zone": "South Jaipur", "pincode": "302020" },
      "geometry": { "type": "Polygon", "coordinates": [[[75.758,26.848],[75.768,26.846],[75.775,26.848],[75.773,26.855],[75.768,26.858],[75.760,26.856],[75.758,26.852],[75.758,26.848]]] }
    },
    {
      "type": "Feature",
      "id": "jpr-s-007",
      "properties": { "name": "Mahaveer Nagar", "zone": "South Jaipur", "pincode": "302020" },
      "geometry": { "type": "Polygon", "coordinates": [[[75.755,26.842],[75.765,26.840],[75.772,26.842],[75.770,26.848],[75.765,26.851],[75.758,26.849],[75.755,26.846],[75.755,26.842]]] }
    },
    {
      "type": "Feature",
      "id": "jpr-s-008",
      "properties": { "name": "Sidharth Nagar", "zone": "South Jaipur", "pincode": "302017" },
      "geometry": { "type": "Polygon", "coordinates": [[[75.800,26.842],[75.810,26.840],[75.818,26.842],[75.816,26.848],[75.810,26.851],[75.803,26.849],[75.800,26.846],[75.800,26.842]]] }
    },
    {
      "type": "Feature",
      "id": "jpr-s-009",
      "properties": { "name": "Narayan Vihar", "zone": "South Jaipur", "pincode": "302020" },
      "geometry": { "type": "Polygon", "coordinates": [[[75.748,26.838],[75.758,26.836],[75.765,26.838],[75.763,26.845],[75.758,26.848],[75.750,26.846],[75.748,26.842],[75.748,26.838]]] }
    },
    {
      "type": "Feature",
      "id": "jpr-s-010",
      "properties": { "name": "Shanti Nagar", "zone": "South Jaipur", "pincode": "302020" },
      "geometry": { "type": "Polygon", "coordinates": [[[75.760,26.835],[75.770,26.833],[75.778,26.835],[75.776,26.842],[75.770,26.845],[75.763,26.843],[75.760,26.840],[75.760,26.835]]] }
    },
    {
      "type": "Feature",
      "id": "jpr-s-011",
      "properties": { "name": "Muhana", "zone": "South Jaipur", "pincode": "302029" },
      "geometry": { "type": "Polygon", "coordinates": [[[75.780,26.790],[75.800,26.785],[75.818,26.788],[75.815,26.800],[75.805,26.808],[75.785,26.805],[75.780,26.798],[75.780,26.790]]] }
    },
    {
      "type": "Feature",
      "id": "jpr-s-012",
      "properties": { "name": "Mahapura", "zone": "South Jaipur", "pincode": "302029" },
      "geometry": { "type": "Polygon", "coordinates": [[[75.750,26.780],[75.770,26.775],[75.788,26.778],[75.785,26.790],[75.775,26.798],[75.755,26.795],[75.750,26.788],[75.750,26.780]]] }
    },
    {
      "type": "Feature",
      "id": "jpr-w-001",
      "properties": { "name": "Vaishali Nagar", "zone": "West Jaipur", "pincode": "302021" },
      "geometry": { "type": "Polygon", "coordinates": [[[75.725,26.912],[75.738,26.908],[75.755,26.910],[75.758,26.918],[75.755,26.928],[75.742,26.932],[75.728,26.928],[75.725,26.920],[75.725,26.912]]] }
    },
    {
      "type": "Feature",
      "id": "jpr-w-002",
      "properties": { "name": "Sirsi Road", "zone": "West Jaipur", "pincode": "302012" },
      "geometry": { "type": "Polygon", "coordinates": [[[75.700,26.930],[75.715,26.928],[75.728,26.930],[75.725,26.940],[75.718,26.945],[75.705,26.942],[75.700,26.938],[75.700,26.930]]] }
    },
    {
      "type": "Feature",
      "id": "jpr-w-003",
      "properties": { "name": "Gandhi Path", "zone": "West Jaipur", "pincode": "302021" },
      "geometry": { "type": "Polygon", "coordinates": [[[75.730,26.905],[75.742,26.903],[75.752,26.905],[75.750,26.912],[75.745,26.916],[75.735,26.914],[75.730,26.910],[75.730,26.905]]] }
    },
    {
      "type": "Feature",
      "id": "jpr-w-004",
      "properties": { "name": "Chitrakoot", "zone": "West Jaipur", "pincode": "302021" },
      "geometry": { "type": "Polygon", "coordinates": [[[75.735,26.895],[75.748,26.893],[75.758,26.895],[75.756,26.902],[75.748,26.906],[75.738,26.904],[75.735,26.900],[75.735,26.895]]] }
    },
    {
      "type": "Feature",
      "id": "jpr-w-005",
      "properties": { "name": "Kanakpura", "zone": "West Jaipur", "pincode": "302012" },
      "geometry": { "type": "Polygon", "coordinates": [[[75.720,26.935],[75.732,26.933],[75.742,26.935],[75.740,26.942],[75.735,26.946],[75.725,26.944],[75.720,26.940],[75.720,26.935]]] }
    },
    {
      "type": "Feature",
      "id": "jpr-w-006",
      "properties": { "name": "Khatipura", "zone": "West Jaipur", "pincode": "302012" },
      "geometry": { "type": "Polygon", "coordinates": [[[75.728,26.945],[75.740,26.943],[75.750,26.945],[75.748,26.952],[75.742,26.956],[75.732,26.954],[75.728,26.950],[75.728,26.945]]] }
    },
    {
      "type": "Feature",
      "id": "jpr-w-007",
      "properties": { "name": "Gopalpura", "zone": "West Jaipur", "pincode": "302015" },
      "geometry": { "type": "Polygon", "coordinates": [[[75.762,26.872],[75.775,26.870],[75.785,26.872],[75.788,26.878],[75.785,26.885],[75.775,26.888],[75.765,26.885],[75.762,26.878],[75.762,26.872]]] }
    },
    {
      "type": "Feature",
      "id": "jpr-w-008",
      "properties": { "name": "Gopalpura By Pass", "zone": "West Jaipur", "pincode": "302018" },
      "geometry": { "type": "Polygon", "coordinates": [[[75.750,26.868],[75.762,26.865],[75.772,26.868],[75.775,26.875],[75.772,26.882],[75.762,26.885],[75.752,26.882],[75.750,26.875],[75.750,26.868]]] }
    },
    {
      "type": "Feature",
      "id": "jpr-w-009",
      "properties": { "name": "Sodala", "zone": "West Jaipur", "pincode": "302019" },
      "geometry": { "type": "Polygon", "coordinates": [[[75.785,26.890],[75.795,26.888],[75.805,26.890],[75.802,26.895],[75.800,26.900],[75.790,26.902],[75.785,26.898],[75.785,26.892],[75.785,26.890]]] }
    },
    {
      "type": "Feature",
      "id": "jpr-w-010",
      "properties": { "name": "Nirman Nagar", "zone": "West Jaipur", "pincode": "302019" },
      "geometry": { "type": "Polygon", "coordinates": [[[75.740,26.902],[75.752,26.898],[75.762,26.900],[75.765,26.908],[75.762,26.915],[75.752,26.918],[75.742,26.915],[75.740,26.908],[75.740,26.902]]] }
    },
    {
      "type": "Feature",
      "id": "jpr-w-011",
      "properties": { "name": "Shyam Nagar", "zone": "West Jaipur", "pincode": "302019" },
      "geometry": { "type": "Polygon", "coordinates": [[[75.760,26.898],[75.772,26.895],[75.782,26.898],[75.785,26.905],[75.782,26.912],[75.772,26.915],[75.762,26.912],[75.760,26.905],[75.760,26.898]]] }
    },
    {
      "type": "Feature",
      "id": "jpr-w-012",
      "properties": { "name": "Ajmer Road", "zone": "West Jaipur", "pincode": "302001" },
      "geometry": { "type": "Polygon", "coordinates": [[[75.710,26.888],[75.725,26.885],[75.738,26.888],[75.740,26.900],[75.738,26.912],[75.725,26.918],[75.712,26.912],[75.710,26.900],[75.710,26.888]]] }
    },
    {
      "type": "Feature",
      "id": "jpr-w-013",
      "properties": { "name": "Bhankrota", "zone": "West Jaipur", "pincode": "302026" },
      "geometry": { "type": "Polygon", "coordinates": [[[75.700,26.895],[75.715,26.892],[75.728,26.895],[75.725,26.905],[75.718,26.910],[75.705,26.908],[75.700,26.902],[75.700,26.895]]] }
    },
    {
      "type": "Feature",
      "id": "jpr-w-014",
      "properties": { "name": "Bagru", "zone": "West Jaipur", "pincode": "303007" },
      "geometry": { "type": "Polygon", "coordinates": [[[75.520,26.800],[75.548,26.795],[75.578,26.798],[75.580,26.820],[75.575,26.840],[75.550,26.845],[75.525,26.840],[75.520,26.822],[75.520,26.800]]] }
    }
  ]
}
